[{"OBJECT_NAME":"TIANMU-1 08","OBJECT_ID":"2023-101B","EPOCH":"2026-03-07T00:03:25.475616","MEAN_MOTION":15.29204229,"ECCENTRICITY":0.00063808,"INCLINATION":97.2717,"RA_OF_ASC_NODE":118.7901,"ARG_OF_PERICENTER":134.2174,"MEAN_ANOMALY":225.9592,"EPHEMERIS_TYPE":0,"CLASSIFICATION_TYPE":"U","NORAD_CAT_ID":57400,"ELEMENT_SET_NO":999,"REV_AT_EPOCH":14602,"BSTAR":1.4774513e-5,"MEAN_MOTION_DOT":3.46e-6,"MEAN_MOTION_DDOT":0},{"OBJECT_NAME":"STARLINK-36449","OBJECT_ID":"2026-002D","EPOCH":"2026-03-09T23:33:54.800928","MEAN_MOTION":15.27599855,"ECCENTRICITY":9.3e-5,"INCLINATION":42.9988,"RA_OF_ASC_NODE":323.6119,"ARG_OF_PERICENTER":255.2706,"MEAN_ANOMALY":104.8043,"EPHEMERIS_TYPE":0,"CLASSIFICATION_TYPE":"U","NORAD_CAT_ID":67308,"ELEMENT_SET_NO":999,"REV_AT_EPOCH":1118,"BSTAR":0.00089905651,"MEAN_MOTION_DOT":0.00024575,"MEAN_MOTION_DDOT":0}]
